{
  "type": "FeatureCollection",
  "features": [
    {
      "id": "3",
      "type": "Feature",
      "properties": {
        "name": "safe zone1"
      },
      "geometry": {
        "type": "Polygon",
        "coordinates": [
          [
            [
              -63.88223339869291,
              49.19565264549347
            ],
            [
              -62.00556273858403,
              48.45528587582933
            ],
            [
              -62.00247370984236,
              48.52668555605285
            ],
            [
              -63.84484045855939,
              49.23984568756484
            ],
            [
              -63.88223339869291,
              49.19565264549347
            ]
          ]
        ]
      }
    },
    {
      "id": "4",
      "type": "Feature",
      "properties": {
        "name": "safe zone2"
      },
      "geometry": {
        "type": "Polygon",
        "coordinates": [
          [
            [
              -64.35775424052835,
              49.35911602534343
            ],
            [
              -63.8807217161084,
              49.19535974427576
            ],
            [
              -63.84364202578786,
              49.24015711331786
            ],
            [
              -64.15464753209746,
              49.34760673703103
            ],
            [
              -64.35775424052835,
              49.35911602534343
            ]
          ]
        ]
      }
    },
    {
      "id": "5",
      "type": "Feature",
      "properties": {
        "name": "safe zone3"
      },
      "geometry": {
        "type": "Polygon",
        "coordinates": [
          [
            [
              -64.77752139874582,
              49.4987566227208
            ],
            [
              -64.48007042860901,
              49.39898527997564
            ],
            [
              -64.28228760177676,
              49.38953265607211
            ],
            [
              -64.74487947359104,
              49.54423324400718
            ],
            [
              -64.77752139874582,
              49.4987566227208
            ]
          ]
        ]
      }
    },
    {
      "id": "6",
      "type": "Feature",
      "properties": {
        "name": "safe zone4"
      },
      "geometry": {
        "type": "Polygon",
        "coordinates": [
          [
            [
              -64.81993035094628,
              49.4207996983001
            ],
            [
              -64.68690069014563,
              49.41180779790464
            ],
            [
              -64.80728312777323,
              49.45420082842666
            ],
            [
              -64.81993035094628,
              49.4207996983001
            ]
          ]
        ]
      }
    },
    {
      "id": "7",
      "type": "Feature",
      "properties": {
        "name": "safe zone5"
      },
      "geometry": {
        "type": "Polygon",
        "coordinates": [
          [
            [
              -64.82662473365693,
              49.35218672574985
            ],
            [
              -64.4431266260812,
              49.33049113704795
            ],
            [
              -64.56410991086992,
              49.37304787491924
            ],
            [
              -64.82684838662387,
              49.3864838002504
            ],
            [
              -64.82662473365693,
              49.35218672574985
            ]
          ]
        ]
      }
    }
  ]
}
