{
  "type": "FeatureCollection",
  "features": [
    {
      "id": "0",
      "type": "Feature",
      "properties": {
        "name": "DSZ A"
      },
      "geometry": {
        "type": "Polygon",
        "coordinates": [
          [
            [
              -64.99951874686639,
              49.33101718018953
            ],
            [
              -63.99967384934665,
              49.1782181899237
            ],
            [
              -64.00018857299014,
              49.35955681459065
            ],
            [
              -65.00034706827348,
              49.67534211758921
            ],
            [
              -64.99951874686639,
              49.33101718018953
            ]
          ]
        ]
      }
    },
    {
      "id": "1",
      "type": "Feature",
      "properties": {
        "name": "DSZ B"
      },
      "geometry": {
        "type": "Polygon",
        "coordinates": [
          [
            [
              -63.99839654785895,
              49.17833445612469
            ],
            [
              -63.00031689613333,
              48.7996057032266
            ],
            [
              -63.00070361564136,
              48.99227884239782
            ],
            [
              -63.99928576390349,
              49.35921217809959
            ],
            [
              -63.99839654785895,
              49.17833445612469
            ]
          ]
        ]
      }
    },
    {
      "id": "2",
      "type": "Feature",
      "properties": {
        "name": "DSZ C"
      },
      "geometry": {
        "type": "Polygon",
        "coordinates": [
          [
            [
              -62.99906594761002,
              48.80125169373032
            ],
            [
              -62.00033987348222,
              48.39899410457546
            ],
            [
              -62.00088951784082,
              48.57744038480842
            ],
            [
              -62.99913441304759,
              48.99238505841809
            ],
            [
              -62.99906594761002,
              48.80125169373032
            ]
          ]
        ]
      }
    }
  ]
}
